2026-023D               
1 67677U 26023D   26047.62605041  .00012905  00000+0  55808-3 0  9994
2 67677  96.6470 123.0138 0019088 200.5985 159.4486 15.22392573  1647
2026-023E               
1 67678U 26023E   26047.62543894  .00014445  00000+0  62232-3 0  9992
2 67678  96.6363 123.0155 0018932 199.9468 160.1033 15.22500218  1646
2026-023F               
1 67679U 26023F   26047.62444549  .00015300  00000+0  65574-3 0  9993
2 67679  96.6370 125.5124 0020871 194.5600 165.5040 15.22629275  1633
2026-023G               
1 67680U 26023G   26047.62470350  .00015001  00000+0  64294-3 0  9990
2 67680  96.6298 125.5103 0022486 191.0574 169.0173 15.22599872  1632
2026-023H               
1 67681U 26023H   26047.69023008  .00000971  00000+0  44030-4 0  9999
2 67681  96.6443 125.5685 0022460 190.0290 170.0504 15.22597278  1645
2026-023J               
1 67682U 26023J   26047.62424625  .00013200  00000+0  56503-3 0  9999
2 67682  96.6399 125.5238 0022665 187.2646 172.8268 15.22663528  1638
ISS OBJECT XZ           
1 67683U 98067XZ  26047.59295067  .00039552  00000+0  69362-3 0  9994
2 67683  51.6310 176.5311 0010453 117.2289 242.9766 15.50106152  1514
GXIBA-1                 
1 67684U 98067YA  26047.58835915  .00072591  00000+0  12178-2 0  9998
2 67684  51.6308 176.5014 0012114 110.6315 249.5975 15.51069447  1516
CORAL                   
1 67685U 98067YB  26047.59205580  .00045290  00000+0  78715-3 0  9995
2 67685  51.6312 176.5256 0012410 112.8726 247.3574 15.50273681  1516
ISS OBJECT YC           
1 67686U 98067YC  26047.59123450  .00052403  00000+0  90420-3 0  9992
2 67686  51.6314 176.5206 0007795  86.2899 273.8981 15.50464751  1515
LEOPARD                 
1 67687U 98067YD  26047.59242646  .00042089  00000+0  73552-3 0  9998
2 67687  51.6315 176.5282 0007881  88.7578 271.4314 15.50202460  1430
ISS OBJECT YE           
1 67688U 98067YE  26047.59154167  .00047501  00000+0  82337-3 0  9994
2 67688  51.6318 176.5235 0007776  87.0684 273.1194 15.50378681  1439
